IRIDIUM 7               
1 24793U 97020B   25131.87125335  .00000356  00000+0  11609-3 0  9992
2 24793  86.4010 192.1136 0002089  99.0614 261.0819 14.35915733466685
IRIDIUM 5               
1 24795U 97020D   25131.81100211  .00003885  00000+0  32237-3 0  9994
2 24795  86.3862 100.5047 0106586 268.9137  89.9879 14.94101663480031
IRIDIUM 4               
1 24796U 97020E   25131.87751301  .00000333  00000+0  10620-3 0  9990
2 24796  86.4006 189.0160 0002194  92.9354 267.2095 14.36820106467286
IRIDIUM 914             
1 24836U 97030A   25131.70416633  .00000421  00000+0  12526-3 0  9999
2 24836  86.3986 197.7925 0002225  52.6420 307.4982 14.40843651601876
IRIDIUM 16              
1 24841U 97030F   25131.74856993  .00000426  00000+0  13246-3 0  9991
2 24841  86.4074 220.5686 0003195 140.4229 219.7203 14.38688332461763
IRIDIUM 911             
1 24842U 97030G   25131.75777559  .00000579  00000+0  15156-3 0  9994
2 24842  86.4499 219.3731 0013061 210.9248 149.1187 14.47603150469815
IRIDIUM 17              
1 24870U 97034B   25131.78294425  .00000522  00000+0  16686-3 0  9995
2 24870  86.3956 250.0542 0003611 112.4500 247.7081 14.37798773458352
IRIDIUM 920             
1 24871U 97034C   25131.78038583  .00000446  00000+0  13128-3 0  9990
2 24871  86.4003 229.3648 0011144 190.9520 169.1439 14.41504878461338
